GLOBALSTAR M063         
1 26081U 00008A   25257.21761433 -.00000057  00000+0  36989-3 0  9993
2 26081  51.9929 237.0972 0004525 125.0535 249.8541 11.86176068168148
GLOBALSTAR M062         
1 26082U 00008B   25257.09430463 -.00000068  00000+0  21647-3 0  9993
2 26082  51.9838 194.3318 0007057 305.6056  67.4696 12.43471951507688
GLOBALSTAR M060         
1 26083U 00008C   25257.23337880 -.00000176  00000+0 -84639-3 0  9990
2 26083  52.0014 166.5287 0003261 317.8173 209.9505 12.17664794163210
GLOBALSTAR M064         
1 26084U 00008D   25257.20482547 -.00000048  00000+0  50096-3 0  9996
2 26084  52.0061 334.9118 0001397 209.8541 150.2212 11.88536238177681
GLOBALSTAR M065         
1 31571U 07020A   25256.87452125 -.00000104  00000+0 -42459-5 0  9995
2 31571  51.9911 316.3320 0010461 143.6032  26.2219 12.62010362844601
GLOBALSTAR M069         
1 31573U 07020C   25257.21320847 -.00000071  00000+0  19810-3 0  9996
2 31573  52.0047 313.2382 0001328 301.5431  93.5994 12.23461882845027
GLOBALSTAR M072         
1 31574U 07020D   25257.03015699 -.00000085  00000+0 -19210-4 0  9994
2 31574  51.9916 115.4489 0001618 108.3282  60.0332 11.91651741842054
GLOBALSTAR M071         
1 31576U 07020F   25257.22280042 -.00000045  00000+0  45276-3 0  9998
2 31576  52.0092 341.3391 0000327 269.6893 115.5944 12.18257662505796
